NSS-10 (AMC-12)         
1 28526U 05003A   24098.86003699 -.00000256  00000+0  00000+0 0  9997
2 28526   4.4374  79.9821 0003096 294.1841  94.5991  1.00271105 45137
ECHOSTAR 15             
1 36792U 10034A   24098.85525076 -.00000290  00000+0  00000+0 0  9996
2 36792   0.0521  81.4536 0002340 266.4163  94.9777  1.00272586 50291
ANGOSAT 2               
1 54033U 22131A   24098.91507696  .00000126  00000+0  00000+0 0  9997
2 54033   0.0057 211.9450 0001258 247.6830  89.4496  1.00271620  5449
