<?xml version="1.0" encoding="utf-8"?>
<ndm xmlns:xsi="http://www.w3.org/2001/XMLSchema-instance" xsi:noNamespaceSchemaLocation="https://sanaregistry.org/r/ndmxml_unqualified/ndmxml-3.0.0-master-3.0.xsd"><omm id="CCSDS_OMM_VERS" version="3.0"><header><COMMENT>GENERATED VIA SPACE-TRACK.ORG API</COMMENT><CREATION_DATE>2024-04-08T04:14:55</CREATION_DATE><ORIGINATOR>18 SPCS</ORIGINATOR></header><body><segment><metadata><OBJECT_NAME>ECHOSTAR 15</OBJECT_NAME><OBJECT_ID>2010-034A</OBJECT_ID><CENTER_NAME>EARTH</CENTER_NAME><REF_FRAME>TEME</REF_FRAME><TIME_SYSTEM>UTC</TIME_SYSTEM><MEAN_ELEMENT_THEORY>SGP4</MEAN_ELEMENT_THEORY></metadata><data><meanElements><EPOCH>2024-04-07T20:31:33.665664</EPOCH><MEAN_MOTION>1.00272586</MEAN_MOTION><ECCENTRICITY>0.00023400</ECCENTRICITY><INCLINATION>0.0521</INCLINATION><RA_OF_ASC_NODE>81.4536</RA_OF_ASC_NODE><ARG_OF_PERICENTER>266.4163</ARG_OF_PERICENTER><MEAN_ANOMALY>94.9777</MEAN_ANOMALY></meanElements><tleParameters><EPHEMERIS_TYPE>0</EPHEMERIS_TYPE><CLASSIFICATION_TYPE>U</CLASSIFICATION_TYPE><NORAD_CAT_ID>36792</NORAD_CAT_ID><ELEMENT_SET_NO>999</ELEMENT_SET_NO><REV_AT_EPOCH>5029</REV_AT_EPOCH><BSTAR>0.00000000000000</BSTAR><MEAN_MOTION_DOT>-0.00000290</MEAN_MOTION_DOT><MEAN_MOTION_DDOT>0.0000000000000</MEAN_MOTION_DDOT></tleParameters><userDefinedParameters><USER_DEFINED parameter="SEMIMAJOR_AXIS">42164.507</USER_DEFINED><USER_DEFINED parameter="PERIOD">1436.085</USER_DEFINED><USER_DEFINED parameter="APOAPSIS">35796.239</USER_DEFINED><USER_DEFINED parameter="PERIAPSIS">35776.506</USER_DEFINED><USER_DEFINED parameter="OBJECT_TYPE">PAYLOAD</USER_DEFINED><USER_DEFINED parameter="RCS_SIZE">LARGE</USER_DEFINED><USER_DEFINED parameter="COUNTRY_CODE">US</USER_DEFINED><USER_DEFINED parameter="LAUNCH_DATE">2010-07-10</USER_DEFINED><USER_DEFINED parameter="SITE">TTMTR</USER_DEFINED><USER_DEFINED parameter="DECAY_DATE"/><USER_DEFINED parameter="FILE">4268432</USER_DEFINED><USER_DEFINED parameter="GP_ID">253977924</USER_DEFINED></userDefinedParameters></data></segment></body></omm><omm id="CCSDS_OMM_VERS" version="3.0"><header><COMMENT>GENERATED VIA SPACE-TRACK.ORG API</COMMENT><CREATION_DATE>2024-04-08T04:14:55</CREATION_DATE><ORIGINATOR>18 SPCS</ORIGINATOR></header><body><segment><metadata><OBJECT_NAME>NSS 10 (AMC-12)</OBJECT_NAME><OBJECT_ID>2005-003A</OBJECT_ID><CENTER_NAME>EARTH</CENTER_NAME><REF_FRAME>TEME</REF_FRAME><TIME_SYSTEM>UTC</TIME_SYSTEM><MEAN_ELEMENT_THEORY>SGP4</MEAN_ELEMENT_THEORY></metadata><data><meanElements><EPOCH>2024-04-07T20:38:27.195936</EPOCH><MEAN_MOTION>1.00271105</MEAN_MOTION><ECCENTRICITY>0.00030960</ECCENTRICITY><INCLINATION>4.4374</INCLINATION><RA_OF_ASC_NODE>79.9821</RA_OF_ASC_NODE><ARG_OF_PERICENTER>294.1841</ARG_OF_PERICENTER><MEAN_ANOMALY>94.5991</MEAN_ANOMALY></meanElements><tleParameters><EPHEMERIS_TYPE>0</EPHEMERIS_TYPE><CLASSIFICATION_TYPE>U</CLASSIFICATION_TYPE><NORAD_CAT_ID>28526</NORAD_CAT_ID><ELEMENT_SET_NO>999</ELEMENT_SET_NO><REV_AT_EPOCH>4513</REV_AT_EPOCH><BSTAR>0.00000000000000</BSTAR><MEAN_MOTION_DOT>-0.00000256</MEAN_MOTION_DOT><MEAN_MOTION_DDOT>0.0000000000000</MEAN_MOTION_DDOT></tleParameters><userDefinedParameters><USER_DEFINED parameter="SEMIMAJOR_AXIS">42164.923</USER_DEFINED><USER_DEFINED parameter="PERIOD">1436.107</USER_DEFINED><USER_DEFINED parameter="APOAPSIS">35799.842</USER_DEFINED><USER_DEFINED parameter="PERIAPSIS">35773.733</USER_DEFINED><USER_DEFINED parameter="OBJECT_TYPE">PAYLOAD</USER_DEFINED><USER_DEFINED parameter="RCS_SIZE">LARGE</USER_DEFINED><USER_DEFINED parameter="COUNTRY_CODE">SES</USER_DEFINED><USER_DEFINED parameter="LAUNCH_DATE">2005-02-03</USER_DEFINED><USER_DEFINED parameter="SITE">TTMTR</USER_DEFINED><USER_DEFINED parameter="DECAY_DATE"/><USER_DEFINED parameter="FILE">4268432</USER_DEFINED><USER_DEFINED parameter="GP_ID">253973335</USER_DEFINED></userDefinedParameters></data></segment></body></omm><omm id="CCSDS_OMM_VERS" version="3.0"><header><COMMENT>GENERATED VIA SPACE-TRACK.ORG API</COMMENT><CREATION_DATE>2024-04-08T04:14:55</CREATION_DATE><ORIGINATOR>18 SPCS</ORIGINATOR></header><body><segment><metadata><OBJECT_NAME>ANGOSAT 2</OBJECT_NAME><OBJECT_ID>2022-131A</OBJECT_ID><CENTER_NAME>EARTH</CENTER_NAME><REF_FRAME>TEME</REF_FRAME><TIME_SYSTEM>UTC</TIME_SYSTEM><MEAN_ELEMENT_THEORY>SGP4</MEAN_ELEMENT_THEORY></metadata><data><meanElements><EPOCH>2024-04-07T21:57:42.649344</EPOCH><MEAN_MOTION>1.00271620</MEAN_MOTION><ECCENTRICITY>0.00012580</ECCENTRICITY><INCLINATION>0.0057</INCLINATION><RA_OF_ASC_NODE>211.9450</RA_OF_ASC_NODE><ARG_OF_PERICENTER>247.6830</ARG_OF_PERICENTER><MEAN_ANOMALY>89.4496</MEAN_ANOMALY></meanElements><tleParameters><EPHEMERIS_TYPE>0</EPHEMERIS_TYPE><CLASSIFICATION_TYPE>U</CLASSIFICATION_TYPE><NORAD_CAT_ID>54033</NORAD_CAT_ID><ELEMENT_SET_NO>999</ELEMENT_SET_NO><REV_AT_EPOCH>544</REV_AT_EPOCH><BSTAR>0.00000000000000</BSTAR><MEAN_MOTION_DOT>0.00000126</MEAN_MOTION_DOT><MEAN_MOTION_DDOT>0.0000000000000</MEAN_MOTION_DDOT></tleParameters><userDefinedParameters><USER_DEFINED parameter="SEMIMAJOR_AXIS">42164.778</USER_DEFINED><USER_DEFINED parameter="PERIOD">1436.099</USER_DEFINED><USER_DEFINED parameter="APOAPSIS">35791.948</USER_DEFINED><USER_DEFINED parameter="PERIAPSIS">35781.339</USER_DEFINED><USER_DEFINED parameter="OBJECT_TYPE">PAYLOAD</USER_DEFINED><USER_DEFINED parameter="RCS_SIZE">LARGE</USER_DEFINED><USER_DEFINED parameter="COUNTRY_CODE">AGO</USER_DEFINED><USER_DEFINED parameter="LAUNCH_DATE">2022-10-12</USER_DEFINED><USER_DEFINED parameter="SITE">TTMTR</USER_DEFINED><USER_DEFINED parameter="DECAY_DATE"/><USER_DEFINED parameter="FILE">4268432</USER_DEFINED><USER_DEFINED parameter="GP_ID">253988269</USER_DEFINED></userDefinedParameters></data></segment></body></omm></ndm>
